SKYKRAFT-1A             
1 55054U 23001AX  26068.71064616  .00008177  00000+0  30069-3 0  9991
2 55054  97.3349 127.6290 0011277 121.5092 238.7251 15.28083228176529
STARLINK-35487          
1 66262U 25245AE  26068.86045417  .00043361  00000+0  14650-2 0  9991
2 66262  53.1584 283.0237 0001966 155.3619 204.7476 15.30257817 21234
